{"type": "FeatureCollection", "features": [{"type": "Feature", "properties": {"norad_id": 2807, "name": "OPS 7218 (TRANSIT 16)", "group": "nnss", "lat": 71.82616928455637, "lon": 173.34516255777245, "alt_km": 1049.282410806417, "timestamp": "2025-12-02T23:34:15.784862+00:00", "meta": {"OBJECT_NAME": "OPS 7218 (TRANSIT 16)", "OBJECT_ID": "1967-048A", "EPOCH": "2025-12-02T11:11:00.710880", "MEAN_MOTION": 13.50719195, "ECCENTRICITY": 0.002141, "INCLINATION": 89.6736, "RA_OF_ASC_NODE": 354.3571, "ARG_OF_PERICENTER": 141.7848, "MEAN_ANOMALY": 338.1682, "EPHEMERIS_TYPE": 0, "CLASSIFICATION_TYPE": "U", "NORAD_CAT_ID": 2807, "ELEMENT_SET_NO": 999, "REV_AT_EPOCH": 88137, "BSTAR": 0.00021633, "MEAN_MOTION_DOT": 1.5e-06, "MEAN_MOTION_DDOT": 0}, "tle": {"line1": "1 02807U 67048A   25336.46598045  .00000150  00000+0  21633-3 0  9995", "line2": "2 02807  89.6736 354.3571 0021410 141.7848 338.1682 13.50719195881376"}}, "geometry": {"type": "Point", "coordinates": [173.34516255777245, 71.82616928455637]}}, {"type": "Feature", "properties": {"norad_id": 2965, "name": "OPS 4947 (TRANSIT 17)", "group": "nnss", "lat": 76.96091497753662, "lon": 28.418467370453822, "alt_km": 1086.2397049546144, "timestamp": "2025-12-02T23:34:15.784884+00:00", "meta": {"OBJECT_NAME": "OPS 4947 (TRANSIT 17)", "OBJECT_ID": "1967-092A", "EPOCH": "2025-12-02T09:03:20.391840", "MEAN_MOTION": 13.53449654, "ECCENTRICITY": 0.0045748, "INCLINATION": 89.2508, "RA_OF_ASC_NODE": 25.2255, "ARG_OF_PERICENTER": 265.6723, "MEAN_ANOMALY": 106.1501, "EPHEMERIS_TYPE": 0, "CLASSIFICATION_TYPE": "U", "NORAD_CAT_ID": 2965, "ELEMENT_SET_NO": 999, "REV_AT_EPOCH": 86957, "BSTAR": 0.00022513, "MEAN_MOTION_DOT": 1.63e-06, "MEAN_MOTION_DDOT": 0}, "tle": {"line1": "1 02965U 67092A   25336.37731935  .00000163  00000+0  22513-3 0  9998", "line2": "2 02965  89.2508  25.2255 0045748 265.6723 106.1501 13.53449654869579"}}, "geometry": {"type": "Point", "coordinates": [28.418467370453822, 76.96091497753662]}}, {"type": "Feature", "properties": {"norad_id": 3133, "name": "OPS 7034 (TRANSIT 18)", "group": "nnss", "lat": -66.84420516431723, "lon": -86.32560277887465, "alt_km": 1078.8084562475551, "timestamp": "2025-12-02T23:34:15.784899+00:00", "meta": {"OBJECT_NAME": "OPS 7034 (TRANSIT 18)", "OBJECT_ID": "1968-012A", "EPOCH": "2025-12-02T10:18:21.710880", "MEAN_MOTION": 13.51562147, "ECCENTRICITY": 0.007289, "INCLINATION": 90.0268, "RA_OF_ASC_NODE": 273.6102, "ARG_OF_PERICENTER": 199.1564, "MEAN_ANOMALY": 285.5442, "EPHEMERIS_TYPE": 0, "CLASSIFICATION_TYPE": "U", "NORAD_CAT_ID": 3133, "ELEMENT_SET_NO": 999, "REV_AT_EPOCH": 56779, "BSTAR": 0.00015811, "MEAN_MOTION_DOT": 1.14e-06, "MEAN_MOTION_DDOT": 0}, "tle": {"line1": "1 03133U 68012A   25336.42941795  .00000114  00000+0  15811-3 0  9991", "line2": "2 03133  90.0268 273.6102 0072890 199.1564 285.5442 13.51562147567798"}}, "geometry": {"type": "Point", "coordinates": [-86.32560277887465, -66.84420516431723]}}, {"type": "Feature", "properties": {"norad_id": 4507, "name": "NNSS 19 (TRANSIT 19)", "group": "nnss", "lat": -88.85832824583441, "lon": -125.192018481671, "alt_km": 992.8715418061911, "timestamp": "2025-12-02T23:34:15.784911+00:00", "meta": {"OBJECT_NAME": "NNSS 19 (TRANSIT 19)", "OBJECT_ID": "1970-067A", "EPOCH": "2025-12-02T06:13:33.729024", "MEAN_MOTION": 13.51310727, "ECCENTRICITY": 0.0171277, "INCLINATION": 90.0056, "RA_OF_ASC_NODE": 234.5264, "ARG_OF_PERICENTER": 323.954, "MEAN_ANOMALY": 35.0158, "EPHEMERIS_TYPE": 0, "CLASSIFICATION_TYPE": "U", "NORAD_CAT_ID": 4507, "ELEMENT_SET_NO": 999, "REV_AT_EPOCH": 72080, "BSTAR": 0.00025983, "MEAN_MOTION_DOT": 1.93e-06, "MEAN_MOTION_DDOT": 0}, "tle": {"line1": "1 04507U 70067A   25336.25941816  .00000193  00000+0  25983-3 0  9993", "line2": "2 04507  90.0056 234.5264 0171277 323.9540  35.0158 13.51310727720804"}}, "geometry": {"type": "Point", "coordinates": [-125.192018481671, -88.85832824583441]}}, {"type": "Feature", "properties": {"norad_id": 6909, "name": "NNSS 20 (TRANSIT 20)", "group": "nnss", "lat": -2.200580724111066, "lon": -104.80517599795142, "alt_km": 1034.1821002377546, "timestamp": "2025-12-02T23:34:15.784922+00:00", "meta": {"OBJECT_NAME": "NNSS 20 (TRANSIT 20)", "OBJECT_ID": "1973-081A", "EPOCH": "2025-12-02T07:49:19.824096", "MEAN_MOTION": 13.71427094, "ECCENTRICITY": 0.0156436, "INCLINATION": 89.8555, "RA_OF_ASC_NODE": 255.2103, "ARG_OF_PERICENTER": 109.1576, "MEAN_ANOMALY": 252.6594, "EPHEMERIS_TYPE": 0, "CLASSIFICATION_TYPE": "U", "NORAD_CAT_ID": 6909, "ELEMENT_SET_NO": 999, "REV_AT_EPOCH": 80218, "BSTAR": 0.00026505, "MEAN_MOTION_DOT": 2.72e-06, "MEAN_MOTION_DDOT": 0}, "tle": {"line1": "1 06909U 73081A   25336.32592389  .00000272  00000+0  26505-3 0  9994", "line2": "2 06909  89.8555 255.2103 0156436 109.1576 252.6594 13.71427094802188"}}, "geometry": {"type": "Point", "coordinates": [-104.80517599795142, -2.200580724111066]}}, {"type": "Feature", "properties": {"norad_id": 10457, "name": "TRANSAT", "group": "nnss", "lat": 0.8326007019823427, "lon": 78.94753738165973, "alt_km": 1093.4803532012575, "timestamp": "2025-12-02T23:34:15.784934+00:00", "meta": {"OBJECT_NAME": "TRANSAT", "OBJECT_ID": "1977-106A", "EPOCH": "2025-12-02T12:56:25.780128", "MEAN_MOTION": 13.48941012, "ECCENTRICITY": 0.0024482, "INCLINATION": 89.6482, "RA_OF_ASC_NODE": 78.9581, "ARG_OF_PERICENTER": 219.6413, "MEAN_ANOMALY": 151.4139, "EPHEMERIS_TYPE": 0, "CLASSIFICATION_TYPE": "U", "NORAD_CAT_ID": 10457, "ELEMENT_SET_NO": 999, "REV_AT_EPOCH": 36606, "BSTAR": 0.00012611, "MEAN_MOTION_DOT": 8.9e-07, "MEAN_MOTION_DDOT": 0}, "tle": {"line1": "1 10457U 77106A   25336.53918727  .00000089  00000+0  12611-3 0  9999", "line2": "2 10457  89.6482  78.9581 0024482 219.6413 151.4139 13.48941012366068"}}, "geometry": {"type": "Point", "coordinates": [78.94753738165973, 0.8326007019823427]}}, {"type": "Feature", "properties": {"norad_id": 12458, "name": "NOVA 1", "group": "nnss", "lat": 82.47339933936604, "lon": 92.64239365762941, "alt_km": 1156.599541781583, "timestamp": "2025-12-02T23:34:15.784944+00:00", "meta": {"OBJECT_NAME": "NOVA 1", "OBJECT_ID": "1981-044A", "EPOCH": "2025-12-02T08:56:29.487264", "MEAN_MOTION": 13.23276723, "ECCENTRICITY": 0.0015562, "INCLINATION": 89.8522, "RA_OF_ASC_NODE": 91.5317, "ARG_OF_PERICENTER": 129.5361, "MEAN_ANOMALY": 290.9236, "EPHEMERIS_TYPE": 0, "CLASSIFICATION_TYPE": "U", "NORAD_CAT_ID": 12458, "ELEMENT_SET_NO": 999, "REV_AT_EPOCH": 15049, "BSTAR": 0.00014149, "MEAN_MOTION_DOT": 6.9e-07, "MEAN_MOTION_DDOT": 0}, "tle": {"line1": "1 12458U 81044A   25336.37256351  .00000069  00000+0  14149-3 0  9994", "line2": "2 12458  89.8522  91.5317 0015562 129.5361 290.9236 13.23276723150494"}}, "geometry": {"type": "Point", "coordinates": [92.64239365762941, 82.47339933936604]}}, {"type": "Feature", "properties": {"norad_id": 15362, "name": "NOVA 3", "group": "nnss", "lat": -36.798269450900676, "lon": 80.51141683703499, "alt_km": 1160.326835212125, "timestamp": "2025-12-02T23:34:15.784955+00:00", "meta": {"OBJECT_NAME": "NOVA 3", "OBJECT_ID": "1984-110A", "EPOCH": "2025-12-02T12:55:16.469184", "MEAN_MOTION": 13.23042582, "ECCENTRICITY": 0.0031321, "INCLINATION": 90.1225, "RA_OF_ASC_NODE": 80.4145, "ARG_OF_PERICENTER": 0.5947, "MEAN_ANOMALY": 10.6151, "EPHEMERIS_TYPE": 0, "CLASSIFICATION_TYPE": "U", "NORAD_CAT_ID": 15362, "ELEMENT_SET_NO": 999, "REV_AT_EPOCH": 98564, "BSTAR": 0.00010768, "MEAN_MOTION_DOT": 5.4e-07, "MEAN_MOTION_DDOT": 0}, "tle": {"line1": "1 15362U 84110A   25336.53838506  .00000054  00000+0  10768-3 0  9991", "line2": "2 15362  90.1225  80.4145 0031321   0.5947  10.6151 13.23042582985641"}}, "geometry": {"type": "Point", "coordinates": [80.51141683703499, -36.798269450900676]}}, {"type": "Feature", "properties": {"norad_id": 15935, "name": "OSCAR 30", "group": "nnss", "lat": -53.505345694539486, "lon": 99.91008248105538, "alt_km": 1253.2966023149056, "timestamp": "2025-12-02T23:34:15.784966+00:00", "meta": {"OBJECT_NAME": "OSCAR 30", "OBJECT_ID": "1985-066A", "EPOCH": "2025-12-02T09:47:28.125024", "MEAN_MOTION": 13.36075608, "ECCENTRICITY": 0.0169317, "INCLINATION": 90.1645, "RA_OF_ASC_NODE": 99.6783, "ARG_OF_PERICENTER": 112.7431, "MEAN_ANOMALY": 314.3185, "EPHEMERIS_TYPE": 0, "CLASSIFICATION_TYPE": "U", "NORAD_CAT_ID": 15935, "ELEMENT_SET_NO": 999, "REV_AT_EPOCH": 96315, "BSTAR": 0.00020486, "MEAN_MOTION_DOT": 1.24e-06, "MEAN_MOTION_DDOT": 0}, "tle": {"line1": "1 15935U 85066A   25336.40796441  .00000124  00000+0  20486-3 0  9991", "line2": "2 15935  90.1645  99.6783 0169317 112.7431 314.3185 13.36075608963156"}}, "geometry": {"type": "Point", "coordinates": [99.91008248105538, -53.505345694539486]}}, {"type": "Feature", "properties": {"norad_id": 15936, "name": "OSCAR 24", "group": "nnss", "lat": 25.375695661310495, "lon": 92.04802178626271, "alt_km": 1126.1383434147183, "timestamp": "2025-12-02T23:34:15.784976+00:00", "meta": {"OBJECT_NAME": "OSCAR 24", "OBJECT_ID": "1985-066B", "EPOCH": "2025-12-02T09:23:34.266048", "MEAN_MOTION": 13.35933297, "ECCENTRICITY": 0.017034, "INCLINATION": 90.1786, "RA_OF_ASC_NODE": 92.1224, "ARG_OF_PERICENTER": 119.2294, "MEAN_ANOMALY": 308.6946, "EPHEMERIS_TYPE": 0, "CLASSIFICATION_TYPE": "U", "NORAD_CAT_ID": 15936, "ELEMENT_SET_NO": 999, "REV_AT_EPOCH": 96505, "BSTAR": 0.00013378, "MEAN_MOTION_DOT": 8.5e-07, "MEAN_MOTION_DDOT": 0}, "tle": {"line1": "1 15936U 85066B   25336.39136882  .00000085  00000+0  13378-3 0  9995", "line2": "2 15936  90.1786  92.1224 0170340 119.2294 308.6946 13.35933297965056"}}, "geometry": {"type": "Point", "coordinates": [92.04802178626271, 25.375695661310495]}}]}